STARLINK-1895           
1 47175U 20088BF  23067.01059273 -.00013411  00000+0 -88406-3 0  9997
2 47175  53.0508 169.2916 0003219  69.2069 290.9265 15.06355213126674
STARLINK-1907           
1 47177U 20088BH  23066.92855437 -.00001491  00000+0 -81267-4 0  9998
2 47177  53.0545 179.6581 0000653 148.5627 211.5401 15.06382049126814
STARLINK-1912           
1 47178U 20088BJ  23067.04190320  .00037237  00000+0  25041-2 0  9997
2 47178  53.0529 189.1515 0000674  82.7430 277.3636 15.06421817126394
STARLINK-1913           
1 47179U 20088BK  23066.36646032  .00004682  00000+0  33294-3 0  9996
2 47179  53.0529 202.1822 0001130  71.8356 288.2756 15.06402769126159
STARLINK-1927           
1 47181U 20088BM  23066.66475995  .00081145  00000+0  48274-2 0  9992
2 47181  53.0525 170.0868 0002252 287.5491  72.5253 15.10540193126620
LUCAS (JDRS-1)          
1 47202U 20089A   23066.86869684 -.00000235  00000+0  00000+0 0  9995
2 47202   0.0189 123.4743 0003123 213.7182 231.6273  1.00272138  8413
FALCON EYE 2            
1 47226U 20090A   23067.13410116  .00003093  00000+0  36926-3 0  9990
2 47226  97.8593 143.0600 0001284  87.2399 272.8989 14.84951638122594
GONETS-M 20             
1 47227U 20091A   23067.09031842  .00000024  00000+0  10000-3 0  9998
2 47227  82.5084 326.5158 0020058 275.4821  84.3971 12.42885626102497
GONETS-M 21             
1 47228U 20091B   23067.14223544  .00000024  00000+0  10000-3 0  9997
2 47228  82.5017 325.9301 0014070 289.4233  70.5328 12.42901978102498
GONETS-M 22             
1 47229U 20091C   23067.11667675  .00000024  00000+0  10000-3 0  9992
2 47229  82.5066 326.2890 0020931 269.1016  90.7666 12.42894525102484
COSMOS 2548             
1 47230U 20091D   23067.11984971  .00000022  00000+0  90075-4 0  9994
2 47230  82.5062 326.1538 0014327 287.7999  72.1519 12.42893984102498
GAOFEN 14               
1 47231U 20092A   23067.25594063  .00017586  00000+0  68703-3 0  9995
2 47231  97.3575 146.2997 0004322 239.1485 204.7949 15.25930888125334
GECAM-A                 
1 47234U 20094A   23066.99987306  .00005670  00000+0  52995-3 0  9993
2 47234  28.9962 187.7534 0012770  93.5346 266.6711 14.92211493122189
GECAM-B                 
1 47235U 20094B   23066.74016001  .00004544  00000+0  42067-3 0  9990
2 47235  28.9979 188.5512 0012748  91.2894 268.9163 14.92346100122158
