[
  {
    "OBJECT_NAME": "STARLINK-1895",
    "OBJECT_ID": "2020-088BF",
    "EPOCH": "2023-03-08T00:15:15.211872",
    "MEAN_MOTION": 15.06355213,
    "ECCENTRICITY": 0.0003219,
    "INCLINATION": 53.0508,
    "RA_OF_ASC_NODE": 169.2916,
    "ARG_OF_PERICENTER": 69.2069,
    "MEAN_ANOMALY": 290.9265,
    "EPHEMERIS_TYPE": 0,
    "CLASSIFICATION_TYPE": "U",
    "NORAD_CAT_ID": 47175,
    "ELEMENT_SET_NO": 999,
    "REV_AT_EPOCH": 12667,
    "BSTAR": -0.00088406,
    "MEAN_MOTION_DOT": -0.00013411,
    "MEAN_MOTION_DDOT": 0
  },
  {
    "OBJECT_NAME": "STARLINK-1907",
    "OBJECT_ID": "2020-088BH",
    "EPOCH": "2023-03-07T22:17:07.097568",
    "MEAN_MOTION": 15.06382049,
    "ECCENTRICITY": 6.53e-5,
    "INCLINATION": 53.0545,
    "RA_OF_ASC_NODE": 179.6581,
    "ARG_OF_PERICENTER": 148.5627,
    "MEAN_ANOMALY": 211.5401,
    "EPHEMERIS_TYPE": 0,
    "CLASSIFICATION_TYPE": "U",
    "NORAD_CAT_ID": 47177,
    "ELEMENT_SET_NO": 999,
    "REV_AT_EPOCH": 12681,
    "BSTAR": -8.1267e-5,
    "MEAN_MOTION_DOT": -1.491e-5,
    "MEAN_MOTION_DDOT": 0
  },
  {
    "OBJECT_NAME": "STARLINK-1912",
    "OBJECT_ID": "2020-088BJ",
    "EPOCH": "2023-03-08T01:00:20.436480",
    "MEAN_MOTION": 15.06421817,
    "ECCENTRICITY": 6.74e-5,
    "INCLINATION": 53.0529,
    "RA_OF_ASC_NODE": 189.1515,
    "ARG_OF_PERICENTER": 82.743,
    "MEAN_ANOMALY": 277.3636,
    "EPHEMERIS_TYPE": 0,
    "CLASSIFICATION_TYPE": "U",
    "NORAD_CAT_ID": 47178,
    "ELEMENT_SET_NO": 999,
    "REV_AT_EPOCH": 12639,
    "BSTAR": 0.0025041,
    "MEAN_MOTION_DOT": 0.00037237,
    "MEAN_MOTION_DDOT": 0
  },
  {
    "OBJECT_NAME": "STARLINK-1913",
    "OBJECT_ID": "2020-088BK",
    "EPOCH": "2023-03-07T08:47:42.171648",
    "MEAN_MOTION": 15.06402769,
    "ECCENTRICITY": 0.000113,
    "INCLINATION": 53.0529,
    "RA_OF_ASC_NODE": 202.1822,
    "ARG_OF_PERICENTER": 71.8356,
    "MEAN_ANOMALY": 288.2756,
    "EPHEMERIS_TYPE": 0,
    "CLASSIFICATION_TYPE": "U",
    "NORAD_CAT_ID": 47179,
    "ELEMENT_SET_NO": 999,
    "REV_AT_EPOCH": 12615,
    "BSTAR": 0.00033294,
    "MEAN_MOTION_DOT": 4.682e-5,
    "MEAN_MOTION_DDOT": 0
  },
  {
    "OBJECT_NAME": "STARLINK-1927",
    "OBJECT_ID": "2020-088BM",
    "EPOCH": "2023-03-07T15:57:15.259680",
    "MEAN_MOTION": 15.10540193,
    "ECCENTRICITY": 0.0002252,
    "INCLINATION": 53.0525,
    "RA_OF_ASC_NODE": 170.0868,
    "ARG_OF_PERICENTER": 287.5491,
    "MEAN_ANOMALY": 72.5253,
    "EPHEMERIS_TYPE": 0,
    "CLASSIFICATION_TYPE": "U",
    "NORAD_CAT_ID": 47181,
    "ELEMENT_SET_NO": 999,
    "REV_AT_EPOCH": 12662,
    "BSTAR": 0.0048274,
    "MEAN_MOTION_DOT": 0.00081145,
    "MEAN_MOTION_DDOT": 0
  },
  {
    "OBJECT_NAME": "LUCAS (JDRS-1)",
    "OBJECT_ID": "2020-089A",
    "EPOCH": "2023-03-07T20:50:55.406976",
    "MEAN_MOTION": 1.00272138,
    "ECCENTRICITY": 0.0003123,
    "INCLINATION": 0.0189,
    "RA_OF_ASC_NODE": 123.4743,
    "ARG_OF_PERICENTER": 213.7182,
    "MEAN_ANOMALY": 231.6273,
    "EPHEMERIS_TYPE": 0,
    "CLASSIFICATION_TYPE": "U",
    "NORAD_CAT_ID": 47202,
    "ELEMENT_SET_NO": 999,
    "REV_AT_EPOCH": 841,
    "BSTAR": 0,
    "MEAN_MOTION_DOT": -2.35e-6,
    "MEAN_MOTION_DDOT": 0
  },
  {
    "OBJECT_NAME": "FALCON EYE 2",
    "OBJECT_ID": "2020-090A",
    "EPOCH": "2023-03-08T03:13:06.340224",
    "MEAN_MOTION": 14.84951638,
    "ECCENTRICITY": 0.0001284,
    "INCLINATION": 97.8593,
    "RA_OF_ASC_NODE": 143.06,
    "ARG_OF_PERICENTER": 87.2399,
    "MEAN_ANOMALY": 272.8989,
    "EPHEMERIS_TYPE": 0,
    "CLASSIFICATION_TYPE": "U",
    "NORAD_CAT_ID": 47226,
    "ELEMENT_SET_NO": 999,
    "REV_AT_EPOCH": 12259,
    "BSTAR": 0.00036926,
    "MEAN_MOTION_DOT": 3.093e-5,
    "MEAN_MOTION_DDOT": 0
  },
  {
    "OBJECT_NAME": "GONETS-M 20",
    "OBJECT_ID": "2020-091A",
    "EPOCH": "2023-03-08T02:10:03.511488",
    "MEAN_MOTION": 12.42885626,
    "ECCENTRICITY": 0.0020058,
    "INCLINATION": 82.5084,
    "RA_OF_ASC_NODE": 326.5158,
    "ARG_OF_PERICENTER": 275.4821,
    "MEAN_ANOMALY": 84.3971,
    "EPHEMERIS_TYPE": 0,
    "CLASSIFICATION_TYPE": "U",
    "NORAD_CAT_ID": 47227,
    "ELEMENT_SET_NO": 999,
    "REV_AT_EPOCH": 10249,
    "BSTAR": 0.0001,
    "MEAN_MOTION_DOT": 2.4e-7,
    "MEAN_MOTION_DDOT": 0
  },
  {
    "OBJECT_NAME": "GONETS-M 21",
    "OBJECT_ID": "2020-091B",
    "EPOCH": "2023-03-08T03:24:49.142016",
    "MEAN_MOTION": 12.42901978,
    "ECCENTRICITY": 0.001407,
    "INCLINATION": 82.5017,
    "RA_OF_ASC_NODE": 325.9301,
    "ARG_OF_PERICENTER": 289.4233,
    "MEAN_ANOMALY": 70.5328,
    "EPHEMERIS_TYPE": 0,
    "CLASSIFICATION_TYPE": "U",
    "NORAD_CAT_ID": 47228,
    "ELEMENT_SET_NO": 999,
    "REV_AT_EPOCH": 10249,
    "BSTAR": 0.0001,
    "MEAN_MOTION_DOT": 2.4e-7,
    "MEAN_MOTION_DDOT": 0
  },
  {
    "OBJECT_NAME": "GONETS-M 22",
    "OBJECT_ID": "2020-091C",
    "EPOCH": "2023-03-08T02:48:00.871200",
    "MEAN_MOTION": 12.42894525,
    "ECCENTRICITY": 0.0020931,
    "INCLINATION": 82.5066,
    "RA_OF_ASC_NODE": 326.289,
    "ARG_OF_PERICENTER": 269.1016,
    "MEAN_ANOMALY": 90.7666,
    "EPHEMERIS_TYPE": 0,
    "CLASSIFICATION_TYPE": "U",
    "NORAD_CAT_ID": 47229,
    "ELEMENT_SET_NO": 999,
    "REV_AT_EPOCH": 10248,
    "BSTAR": 0.0001,
    "MEAN_MOTION_DOT": 2.4e-7,
    "MEAN_MOTION_DDOT": 0
  },
  {
    "OBJECT_NAME": "COSMOS 2548",
    "OBJECT_ID": "2020-091D",
    "EPOCH": "2023-03-08T02:52:35.014944",
    "MEAN_MOTION": 12.42893984,
    "ECCENTRICITY": 0.0014327,
    "INCLINATION": 82.5062,
    "RA_OF_ASC_NODE": 326.1538,
    "ARG_OF_PERICENTER": 287.7999,
    "MEAN_ANOMALY": 72.1519,
    "EPHEMERIS_TYPE": 0,
    "CLASSIFICATION_TYPE": "U",
    "NORAD_CAT_ID": 47230,
    "ELEMENT_SET_NO": 999,
    "REV_AT_EPOCH": 10249,
    "BSTAR": 9.0075e-5,
    "MEAN_MOTION_DOT": 2.2e-7,
    "MEAN_MOTION_DDOT": 0
  },
  {
    "OBJECT_NAME": "GAOFEN 14",
    "OBJECT_ID": "2020-092A",
    "EPOCH": "2023-03-08T06:08:33.270432",
    "MEAN_MOTION": 15.25930888,
    "ECCENTRICITY": 0.0004322,
    "INCLINATION": 97.3575,
    "RA_OF_ASC_NODE": 146.2997,
    "ARG_OF_PERICENTER": 239.1485,
    "MEAN_ANOMALY": 204.7949,
    "EPHEMERIS_TYPE": 0,
    "CLASSIFICATION_TYPE": "U",
    "NORAD_CAT_ID": 47231,
    "ELEMENT_SET_NO": 999,
    "REV_AT_EPOCH": 12533,
    "BSTAR": 0.00068703,
    "MEAN_MOTION_DOT": 0.00017586,
    "MEAN_MOTION_DDOT": 0
  },
  {
    "OBJECT_NAME": "GECAM-A",
    "OBJECT_ID": "2020-094A",
    "EPOCH": "2023-03-07T23:59:49.032384",
    "MEAN_MOTION": 14.92211493,
    "ECCENTRICITY": 0.001277,
    "INCLINATION": 28.9962,
    "RA_OF_ASC_NODE": 187.7534,
    "ARG_OF_PERICENTER": 93.5346,
    "MEAN_ANOMALY": 266.6711,
    "EPHEMERIS_TYPE": 0,
    "CLASSIFICATION_TYPE": "U",
    "NORAD_CAT_ID": 47234,
    "ELEMENT_SET_NO": 999,
    "REV_AT_EPOCH": 12218,
    "BSTAR": 0.00052995,
    "MEAN_MOTION_DOT": 5.67e-5,
    "MEAN_MOTION_DDOT": 0
  },
  {
    "OBJECT_NAME": "GECAM-B",
    "OBJECT_ID": "2020-094B",
    "EPOCH": "2023-03-07T17:45:49.824864",
    "MEAN_MOTION": 14.923461,
    "ECCENTRICITY": 0.0012748,
    "INCLINATION": 28.9979,
    "RA_OF_ASC_NODE": 188.5512,
    "ARG_OF_PERICENTER": 91.2894,
    "MEAN_ANOMALY": 268.9163,
    "EPHEMERIS_TYPE": 0,
    "CLASSIFICATION_TYPE": "U",
    "NORAD_CAT_ID": 47235,
    "ELEMENT_SET_NO": 999,
    "REV_AT_EPOCH": 12215,
    "BSTAR": 0.00042067,
    "MEAN_MOTION_DOT": 4.544e-5,
    "MEAN_MOTION_DDOT": 0
  }
]
